COSMOS 2361 [-]         
1 25590U 98076A   22275.55702853  .00000054  00000+0  42588-4 0  9993
2 25590  82.9317 127.0072 0030241 271.0609 149.2033 13.73028826190931
COSMOS 2378 [-]         
1 26818U 01023A   22275.67781632  .00000079  00000+0  67857-4 0  9991
2 26818  82.9284 144.7641 0031971 214.9432 198.4179 13.73976478 69035
COSMOS 2389 [-]         
1 27436U 02026A   22275.54946458  .00000044  00000+0  29313-4 0  9994
2 27436  82.9466  90.7521 0047681  77.3090 342.0399 13.74982689 21083
COSMOS 2398 [-]         
1 27818U 03023A   22275.68619304  .00000028  00000+0  13468-4 0  9994
2 27818  82.9480  52.5835 0032456 112.8789 306.3071 13.72217618968093
COSMOS 2407 [+]         
1 28380U 04028A   22275.53554505  .00000073  00000+0  58693-4 0  9999
2 28380  82.9654 357.1520 0040620  78.3863 282.1845 13.76121317913888
COSMOS 2414 [+]         
1 28521U 05002A   22275.32520869  .00000079  00000+0  53254-4 0  9996
2 28521  82.9545 347.4402 0039060 228.3496 131.4315 13.87666550896377
COSMOS 2429 [-]         
1 32052U 07038A   22275.34552419  .00000058  00000+0  44262-4 0  9995
2 32052  82.9777 123.5721 0039580  56.7798 303.7142 13.74970116755592
COSMOS 2454 [-]         
1 35635U 09039A   22275.43329226  .00000083  00000+0  54671-4 0  9999
2 35635  82.9590 333.5084 0019271 168.2755 191.8853 13.89695674669551
COSMOS 2463 [+]         
1 36519U 10017A   22275.48209356  .00000047  00000+0  35607-4 0  9993
2 36519  82.9632 164.2098 0034990 286.9604 246.7542 13.71480738622367
